ONEWEB-0228             
1 48780U 21045P   23350.32400823  .00000231  00000+0  58081-3 0  9994
2 48780  87.9000  81.1087 0001617 108.6811 251.4495 13.15540824124176
